NORAD_CAT_ID,OBJECT_NAME,OBJECT_TYPE,EPOCH,MEAN_MOTION,ECCENTRICITY,INCLINATION,RA_OF_ASC_NODE,ARG_OF_PERICENTER,MEAN_ANOMALY,BSTAR,MEAN_MOTION_DOT,MEAN_MOTION_DDOT,TLE_LINE0,TLE_LINE1,TLE_LINE2,SEMIMAJOR_AXIS,PERIOD,APOGEE,PERIGEE,DECAYED
54780.0,STARLINK-5449,PAYLOAD,2023-02-07 14:00:01,15.62126721,0.000104,53.2144,50.1579,76.3509,300.2641,-0.011887,-0.00961275,0.0,0 STARLINK-5449,1 54780U 22175Y   23038.58334491 -.00961275  00000-0 -11887-1 0  9992,2 54780  53.2144  50.1579 0001040  76.3509 300.2641 15.62126721  7889,6759.652,92.182,382.22,380.814,0.0
54780.0,STARLINK-5449,PAYLOAD,2023-02-07 22:00:00,15.61413461,0.0001191,53.2149,48.5341,87.9771,3.8426,-0.010859,-0.00863068,0.0,0 STARLINK-5449,1 54780U 22175Y   23038.91667824 -.00863068  00000-0 -10859-1 0  9997,2 54780  53.2149  48.5341 0001191  87.9771   3.8426 15.61413461  1305,6761.71,92.224,384.381,382.77,0.0
54780.0,STARLINK-5449,PAYLOAD,2023-02-08 06:00:00,15.60780008,0.0001311,53.2151,46.9153,82.7879,83.4285,-0.011704,-0.00903713,0.0,0 STARLINK-5449,1 54780U 22175Y   23039.25001157 -.00903713  00000-0 -11704-1 0  9998,2 54780  53.2151  46.9153 0001311  82.7879  83.4285 15.60780008  7987,6763.54,92.262,386.291,384.518,0.0
54780.0,STARLINK-5449,PAYLOAD,2023-02-08 14:00:01,15.60176559,0.0001259,53.215,45.297,84.0535,155.7615,-0.012976,-0.00971658,0.0,0 STARLINK-5449,1 54780U 22175Y   23039.58334491 -.00971658  00000-0 -12976-1 0  9999,2 54780  53.2150  45.2970 0001259  84.0535 155.7615 15.60176559  1300,6765.284,92.297,388.0,386.297,0.0
54780.0,STARLINK-5449,PAYLOAD,2023-02-08 22:00:00,15.59468657,0.0001219,53.215,43.6783,96.2332,216.4352,-0.01185,-0.00872751,0.0,0 STARLINK-5449,1 54780U 22175Y   23039.91667824 -.00872751  00000-0 -11850-1 0  9999,2 54780  53.2150  43.6783 0001219  96.2332 216.4352 15.59468657  1304,6767.331,92.339,390.021,388.371,0.0
54780.0,STARLINK-5449,PAYLOAD,2023-02-09 06:00:00,15.58832484,0.0001249,53.2148,42.0647,83.6335,301.0857,-0.01271,-0.00909946,0.0,0 STARLINK-5449,1 54780U 22175Y   23040.25001157 -.00909946  00000-0 -12710-1 0  9992,2 54780  53.2148  42.0647 0001249  83.6335 301.0857 15.58832484  8141,6769.172,92.377,391.882,390.191,0.0
54780.0,STARLINK-5449,PAYLOAD,2023-02-09 12:00:00,15.58351208,0.0001162,53.2145,40.8546,82.345,265.8932,-0.012889,-0.00906333,0.0,0 STARLINK-5449,1 54780U 22175Y   23040.50001157 -.00906333  00000-0 -12889-1 0  9994,2 54780  53.2145  40.8546 0001162  82.3450 265.8932 15.58351208  1302,6770.566,92.405,393.217,391.644,0.0
54780.0,STARLINK-5449,PAYLOAD,2023-02-09 22:00:00,15.5752729,0.0001363,53.2146,38.8368,97.4821,68.9947,-0.013053,-0.0089117,0.0,0 STARLINK-5449,1 54780U 22175Y   23040.91667824 -.00891170  00000-0 -13053-1 0  9994,2 54780  53.2146  38.8368 0001363  97.4821  68.9947 15.57527290  1307,6772.953,92.454,395.741,393.895,0.0
54780.0,STARLINK-5449,PAYLOAD,2023-02-10 02:00:01,15.57230843,0.000124,53.215,38.032,97.2157,284.2039,-0.014053,-0.00943376,0.0,0 STARLINK-5449,1 54780U 22175Y   23041.08334491 -.00943376  00000-0 -14053-1 0  9991,2 54780  53.2150  38.0320 0001240  97.2157 284.2039 15.57230843  8279,6773.813,92.472,396.518,394.838,0.0
54780.0,STARLINK-5449,PAYLOAD,2023-02-10 04:00:00,15.57049891,0.0001335,53.2149,37.6299,90.044,38.7866,-0.013801,-0.00922307,0.0,0 STARLINK-5449,1 54780U 22175Y   23041.16667824 -.00922307  00000-0 -13801-1 0  9990,2 54780  53.2149  37.6299 0001335  90.0440  38.7866 15.57049891  1306,6774.337,92.483,397.107,395.298,0.0
54780.0,STARLINK-5449,PAYLOAD,2023-02-10 16:00:00,15.56080908,0.0001221,53.2152,35.216,88.4007,323.8135,-0.014501,-0.0093336,0.0,0 STARLINK-5449,1 54780U 22175Y   23041.66667824 -.00933360  00000-0 -14501-1 0  9994,2 54780  53.2152  35.2160 0001221  88.4007 323.8135 15.56080908  8368,6777.149,92.54,399.842,398.187,0.0
54780.0,STARLINK-5449,PAYLOAD,2023-02-10 22:00:00,15.55566691,0.0001214,53.2154,34.0093,92.5194,280.7318,-0.013856,-0.00880016,0.0,0 STARLINK-5449,1 54780U 22175Y   23041.91667824 -.00880016  00000-0 -13856-1 0  9993,2 54780  53.2154  34.0093 0001214  92.5194 280.7318 15.55566691  1305,6778.643,92.571,401.331,399.685,0.0
54780.0,STARLINK-5449,PAYLOAD,2023-02-11 14:00:01,15.54305569,0.0001332,53.2154,30.8003,78.2412,68.936,-0.01588,-0.00968572,0.0,0 STARLINK-5449,1 54780U 22175Y   23042.58334491 -.00968572  00000-0 -15880-1 0  9991,2 54780  53.2154  30.8003 0001332  78.2412  68.9360 15.54305569  8501,6782.309,92.646,405.077,403.271,0.0
54780.0,STARLINK-5449,PAYLOAD,2023-02-11 22:00:00,15.53626473,0.0001444,53.2153,29.1964,98.9241,114.0514,-0.015171,-0.00895494,0.0,0 STARLINK-5449,1 54780U 22175Y   23042.91667824 -.00895494  00000-0 -15171-1 0  9992,2 54780  53.2153  29.1964 0001444  98.9241 114.0514 15.53626473  1304,6784.285,92.686,407.13,405.171,0.0
54780.0,STARLINK-5449,PAYLOAD,2023-02-12 06:00:00,15.52964877,0.0001364,53.2153,27.5972,93.4927,184.5027,-0.01548,-0.00892207,0.0,0 STARLINK-5449,1 54780U 22175Y   23043.25001157 -.00892207  00000-0 -15480-1 0  9993,2 54780  53.2153  27.5972 0001364  93.4927 184.5027 15.52964877  8611,6786.212,92.726,409.003,407.151,0.0
54780.0,STARLINK-5449,PAYLOAD,2023-02-12 14:00:01,15.52351454,0.0001169,53.2148,25.9967,94.2823,247.9321,-0.016991,-0.00965194,0.0,0 STARLINK-5449,1 54780U 22175Y   23043.58334491 -.00965194  00000-0 -16991-1 0  9993,2 54780  53.2148  25.9967 0001169  94.2823 247.9321 15.52351454  1309,6788.0,92.762,410.658,409.071,0.0
54780.0,STARLINK-5449,PAYLOAD,2023-02-12 22:00:00,15.51674836,0.0001115,53.2149,24.3975,101.2848,304.3823,-0.016345,-0.00898323,0.0,0 STARLINK-5449,1 54780U 22175Y   23043.91667824 -.00898323  00000-0 -16345-1 0  9991,2 54780  53.2149  24.3975 0001115 101.2848 304.3823 15.51674836  8717,6789.973,92.803,412.595,411.081,0.0
54780.0,STARLINK-5449,PAYLOAD,2023-02-13 14:00:01,15.5024699,0.0001264,53.2149,21.207,91.7972,78.442,-0.0097007,-0.00522479,0.0,0 STARLINK-5449,1 54780U 22175Y   23044.58334491 -.00522479  00000-0 -97007-2 0  9997,2 54780  53.2149  21.2070 0001264  91.7972  78.4420 15.50246990  1300,6794.141,92.888,416.865,415.148,0.0
54780.0,STARLINK-5449,PAYLOAD,2023-02-13 22:00:00,15.49876462,0.0001474,53.2151,19.6123,103.5003,127.8449,0.00063438,0.00035706,0.0,0 STARLINK-5449,1 54780U 22175Y   23044.91667824  .00035706  00000-0  63438-3 0  9995,2 54780  53.2151  19.6123 0001474 103.5003 127.8449 15.49876462  8862,6795.224,92.911,418.091,416.088,0.0
54780.0,STARLINK-5449,PAYLOAD,2023-02-14 14:00:01,15.49900141,0.0001224,53.2153,16.4271,97.403,255.7709,-0.00058202,-0.00033361,0.0,0 STARLINK-5449,1 54780U 22175Y   23045.58334491 -.00033361  00000-0 -58202-3 0  9990,2 54780  53.2153  16.4271 0001224  97.4030 255.7709 15.49900141  8971,6795.155,92.909,417.852,416.188,0.0
54780.0,STARLINK-5449,PAYLOAD,2023-02-14 20:00:01,15.49863843,0.0001305,53.2154,15.2312,105.338,203.5324,0.00079929,0.0004514,0.0,0 STARLINK-5449,1 54780U 22175Y   23045.83334491  .00045140  00000-0  79929-3 0  9993,2 54780  53.2154  15.2312 0001305 105.3380 203.5324 15.49863843  1303,6795.261,92.911,418.013,416.239,0.0
54780.0,STARLINK-5449,PAYLOAD,2023-02-17 00:49:51,15.50233334,0.000133,53.2163,4.7081,227.842,132.2477,0.00074856,0.00042794,0.0,0 STARLINK-5449,1 54780U 22175Y   23048.03462370  .00042794  00000-0  74856-3 0  9992,2 54780  53.2163   4.7081 0001330 227.8420 132.2477 15.50233334  9350,6794.181,92.889,416.95,415.143,0.0
54780.0,STARLINK-5449,PAYLOAD,2023-02-17 02:19:29,15.52778029,0.001174,53.2155,4.385,243.5493,116.4315,0.006321,0.00419991,0.0,0 STARLINK-5449,1 54780U 22175Y   23048.09687396  .00419991  00000-0  63210-2 0  9993,2 54780  53.2155   4.3850 0011740 243.5493 116.4315 15.52778029  9365,6786.756,92.737,416.589,400.654,0.0
54780.0,STARLINK-5449,PAYLOAD,2023-02-17 22:00:00,15.47802747,0.0001375,53.2153,0.503,92.8839,145.3005,-0.019676,-0.00951627,0.0,0 STARLINK-5449,1 54780U 22175Y   23048.91667824 -.00951627  00000-0 -19676-1 0  9993,2 54780  53.2153   0.5030 0001375  92.8839 145.3005 15.47802747  9493,6801.292,93.035,424.092,422.222,0.0
54780.0,STARLINK-5449,PAYLOAD,2023-02-18 14:00:01,15.46462818,0.0001171,53.2157,357.3302,86.2083,267.1801,-0.019567,-0.00906885,0.0,0 STARLINK-5449,1 54780U 22175Y   23049.58334491 -.00906885  00000-0 -19567-1 0  9993,2 54780  53.2157 357.3302 0001171  86.2083 267.1801 15.46462818  1303,6805.22,93.116,427.882,426.288,0.0
54780.0,STARLINK-5449,PAYLOAD,2023-02-18 22:00:00,15.45851367,0.000132,53.2158,355.7458,86.4828,323.3048,-0.021201,-0.00957482,0.0,0 STARLINK-5449,1 54780U 22175Y   23049.91667824 -.00957482  00000-0 -21201-1 0  9996,2 54780  53.2158 355.7458 0001320  86.4828 323.3048 15.45851367  9646,6807.015,93.153,429.778,427.981,0.0
54780.0,STARLINK-5449,PAYLOAD,2023-02-19 14:00:01,15.44503864,0.0001361,53.2157,352.5822,84.947,75.3503,-0.02055,-0.00891565,0.0,0 STARLINK-5449,1 54780U 22175Y   23050.58334491 -.00891565  00000-0 -20550-1 0  9997,2 54780  53.2157 352.5822 0001361  84.9470  75.3503 15.44503864  9742,6810.973,93.234,433.765,431.911,0.0
54780.0,STARLINK-5449,PAYLOAD,2023-02-20 06:00:00,15.4319982,0.0001376,53.2153,349.4267,84.6805,182.9732,-0.021059,-0.00875279,0.0,0 STARLINK-5449,1 54780U 22175Y   23051.25001157 -.00875279  00000-0 -21059-1 0  9991,2 54780  53.2153 349.4267 0001376  84.6805 182.9732 15.43199820  9854,6814.81,93.313,437.612,435.737,0.0
54780.0,STARLINK-5449,PAYLOAD,2023-02-20 14:00:01,15.42549689,0.0001262,53.2151,347.8487,95.5383,224.6278,-0.021887,-0.00888738,0.0,0 STARLINK-5449,1 54780U 22175Y   23051.58334491 -.00888738  00000-0 -21887-1 0  9990,2 54780  53.2151 347.8487 0001262  95.5383 224.6278 15.42549689  1306,6816.724,93.352,439.45,437.729,0.0
54780.0,STARLINK-5449,PAYLOAD,2023-02-20 22:00:01,15.41939759,0.0001255,53.2152,346.2741,96.7499,275.1894,-0.024059,-0.00951371,0.0,0 STARLINK-5449,1 54780U 22175Y   23051.91668981 -.00951371  00000-0 -24059-1 0  9999,2 54780  53.2152 346.2741 0001255  96.7499 275.1894 15.41939759  9950,6818.522,93.389,441.243,439.531,0.0
